0 COSMOS 1249 COOLANT
1 26506U 81021H   13283.17205049  .00000091  00000-0  14305-3 0  2344
2 26506 064.9561 211.9784 0058462 315.2029 044.4285 13.90724506696310
0 COSMOS 1249 COOLANT
1 26506U 81021H   13285.40124907  .00000093  00000-0  14490-3 0  2353
2 26506 064.9572 206.1320 0058557 314.6133 045.0161 13.90725449696629
0 COSMOS 1249 COOLANT
1 26506U 81021H   13289.14054527  .00000099  00000-0  14941-3 0  2366
2 26506 064.9559 196.3233 0058675 313.7302 045.8916 13.90726980697141
0 COSMOS 1249 COOLANT
1 26506U 81021H   13292.16074333  .00000102  00000-0  15159-3 0  2377
2 26506 064.9559 188.4027 0058612 312.7305 046.8881 13.90728231697566
0 COSMOS 1249 COOLANT
1 26506U 81021H   13295.10902702  .00000107  00000-0  15590-3 0  2389
2 26506 064.9570 180.6731 0057964 311.6768 047.9375 13.90729653697979
